*******************************************************************************
Ephemeris / WWW_USER Tue Mar 11 05:38:06 2025 Pasadena, USA      / Horizons    
*******************************************************************************
Target body name: (2018 RB1)                      {source: JPL#5}
Center body name: Earth (399)                     {source: DE441}
Center-site name: Gemini South Obs., Cerro Pachon
*******************************************************************************
Start time      : A.D. 2018-Jul-31 22:18:00.0000 UT      
Stop  time      : A.D. 2018-Aug-01 11:20:00.0000 UT      
Step-size       : 1 minutes
*******************************************************************************
Target pole/equ : undefined
Target radii    : undefined                                                    
Center geodetic : 289.2634, -30.2406227, 2.71233  {E-lon(deg),Lat(deg),Alt(km)}
Center cylindric: 289.2634,5517.21435,-3194.81213 {E-lon(deg),Dxy(km),Dz(km)}
Center pole/equ : ITRF93                          {East-longitude positive}
Center radii    : 6378.137, 6378.137, 6356.752 km {Equator_a, b, pole_c}       
Target primary  : Sun
Vis. interferer : MOON (R_eq= 1737.400) km        {source: DE441}
Rel. light bend : Sun                             {source: DE441}
Rel. lght bnd GM: 1.3271E+11 km^3/s^2                                          
Small-body perts: Yes                             {source: SB441-N16}
Atmos refraction: NO (AIRLESS)
RA format       : HMS
Time format     : CAL 
Calendar mode   : Mixed Julian/Gregorian
RTS-only print  : NO       
EOP file        : eop.250310.p250606                                           
EOP coverage    : DATA-BASED 1962-JAN-20 TO 2025-MAR-10. PREDICTS-> 2025-JUN-05
Units conversion: 1 au= 149597870.700 km, c= 299792.458 km/s, 1 day= 86400.0 s 
Table cut-offs 1: Elevation (-90.0deg=NO ),Airmass (>38.000=NO), Daylight (YES)
Table cut-offs 2: Solar elongation (  0.0,180.0=NO ),Local Hour Angle( 0.0=NO )
Table cut-offs 3: RA/DEC angular rate (     0.0=NO )                           
*******************************************************************************
Initial IAU76/J2000 heliocentric ecliptic osculating elements (au, days, deg.):
  EPOCH=  2458368.5 ! 2018-Sep-07.00 (TDB)         Residual RMS= .299          
   EC= .2816093255492492   QR= .7991213126369837   TP= 2458438.7854507864      
   OM= 166.9631715555783   W=  267.8210074013559   IN= 5.127543488636634       
  Equivalent ICRF heliocentric cartesian coordinates (au, au/d):
   X= 9.883258176612897E-01  Y=-2.654573099408967E-01  Z=-1.095366816313374E-01
  VX= 1.112505236628486E-04 VY= 1.667631342697191E-02 VZ= 5.559084906068471E-03
Asteroid physical parameters (km, seconds, rotational period in hours):        
   GM= n.a.                RAD= n.a.               ROTPER= n.a.                
   H= 27.9                 G= .150                 B-V= n.a.                   
                           ALBEDO= n.a.            STYP= n.a.                  
*******************************************************************************
 Date__(UT)__HR:MN     R.A._________(ICRF)_________DEC
******************************************************
$$SOE
 2018-Jul-31 22:18 C   22 30 22.322435 +07 19 05.49008
 2018-Jul-31 22:19 C   22 30 22.343907 +07 19 05.86701
 2018-Jul-31 22:20 C   22 30 22.365342 +07 19 06.24399
 2018-Jul-31 22:21 C   22 30 22.386738 +07 19 06.62100
 2018-Jul-31 22:22 C   22 30 22.408097 +07 19 06.99806
 2018-Jul-31 22:23 C   22 30 22.429418 +07 19 07.37516
 2018-Jul-31 22:24 C   22 30 22.450700 +07 19 07.75230
 2018-Jul-31 22:25 C   22 30 22.471945 +07 19 08.12949
 2018-Jul-31 22:26 C   22 30 22.493151 +07 19 08.50671
 2018-Jul-31 22:27 C   22 30 22.514319 +07 19 08.88398
 2018-Jul-31 22:28 C   22 30 22.535448 +07 19 09.26129
 2018-Jul-31 22:29 C   22 30 22.556538 +07 19 09.63863
 2018-Jul-31 22:30 C   22 30 22.577590 +07 19 10.01602
 2018-Jul-31 22:31 C   22 30 22.598603 +07 19 10.39345
 2018-Jul-31 22:32 C   22 30 22.619577 +07 19 10.77091
 2018-Jul-31 22:33 C   22 30 22.640512 +07 19 11.14842
 2018-Jul-31 22:34 C   22 30 22.661408 +07 19 11.52596
 2018-Jul-31 22:35 N   22 30 22.682264 +07 19 11.90354
 2018-Jul-31 22:36 N   22 30 22.703081 +07 19 12.28116
 2018-Jul-31 22:37 N   22 30 22.723859 +07 19 12.65881
 2018-Jul-31 22:38 N   22 30 22.744597 +07 19 13.03651
 2018-Jul-31 22:39 N   22 30 22.765295 +07 19 13.41424
 2018-Jul-31 22:40 N   22 30 22.785954 +07 19 13.79201
 2018-Jul-31 22:41 N   22 30 22.806573 +07 19 14.16981
 2018-Jul-31 22:42 N   22 30 22.827151 +07 19 14.54765
 2018-Jul-31 22:43 N   22 30 22.847690 +07 19 14.92553
 2018-Jul-31 22:44 N   22 30 22.868188 +07 19 15.30344
 2018-Jul-31 22:45 N   22 30 22.888647 +07 19 15.68138
 2018-Jul-31 22:46 N   22 30 22.909065 +07 19 16.05936
 2018-Jul-31 22:47 N   22 30 22.929442 +07 19 16.43738
 2018-Jul-31 22:48 N   22 30 22.949779 +07 19 16.81543
 2018-Jul-31 22:49 N   22 30 22.970075 +07 19 17.19351
 2018-Jul-31 22:50 N   22 30 22.990331 +07 19 17.57163
 2018-Jul-31 22:51 N   22 30 23.010546 +07 19 17.94977
 2018-Jul-31 22:52 N   22 30 23.030720 +07 19 18.32796
 2018-Jul-31 22:53 N   22 30 23.050853 +07 19 18.70617
 2018-Jul-31 22:54 N   22 30 23.070944 +07 19 19.08442
 2018-Jul-31 22:55 N   22 30 23.090995 +07 19 19.46270
 2018-Jul-31 22:56 N   22 30 23.111004 +07 19 19.84100
 2018-Jul-31 22:57 N   22 30 23.130972 +07 19 20.21935
 2018-Jul-31 22:58 N   22 30 23.150899 +07 19 20.59772
 2018-Jul-31 22:59 N   22 30 23.170784 +07 19 20.97612
 2018-Jul-31 23:00 N   22 30 23.190628 +07 19 21.35455
 2018-Jul-31 23:01 N   22 30 23.210430 +07 19 21.73301
 2018-Jul-31 23:02 N   22 30 23.230190 +07 19 22.11150
 2018-Jul-31 23:03 N   22 30 23.249908 +07 19 22.49002
 2018-Jul-31 23:04 A   22 30 23.269584 +07 19 22.86857
 2018-Jul-31 23:05 A   22 30 23.289219 +07 19 23.24715
 2018-Jul-31 23:06 A   22 30 23.308811 +07 19 23.62575
 2018-Jul-31 23:07 A   22 30 23.328361 +07 19 24.00438
 2018-Jul-31 23:08 A   22 30 23.347869 +07 19 24.38304
 2018-Jul-31 23:09 A   22 30 23.367335 +07 19 24.76173
 2018-Jul-31 23:10 A   22 30 23.386758 +07 19 25.14044
 2018-Jul-31 23:11 A   22 30 23.406138 +07 19 25.51918
 2018-Jul-31 23:12 A   22 30 23.425477 +07 19 25.89795
 2018-Jul-31 23:13 A   22 30 23.444772 +07 19 26.27674
 2018-Jul-31 23:14 A   22 30 23.464025 +07 19 26.65555
 2018-Jul-31 23:15 A   22 30 23.483235 +07 19 27.03439
 2018-Jul-31 23:16 A   22 30 23.502403 +07 19 27.41326
 2018-Jul-31 23:17 A   22 30 23.521527 +07 19 27.79215
 2018-Jul-31 23:18 A   22 30 23.540609 +07 19 28.17106
 2018-Jul-31 23:19 A   22 30 23.559647 +07 19 28.55000
 2018-Jul-31 23:20 A   22 30 23.578642 +07 19 28.92896
 2018-Jul-31 23:21 A   22 30 23.597594 +07 19 29.30794
 2018-Jul-31 23:22 A   22 30 23.616503 +07 19 29.68695
 2018-Jul-31 23:23 A   22 30 23.635369 +07 19 30.06597
 2018-Jul-31 23:24 A   22 30 23.654191 +07 19 30.44502
 2018-Jul-31 23:25 A   22 30 23.672970 +07 19 30.82409
 2018-Jul-31 23:26 A   22 30 23.691705 +07 19 31.20318
 2018-Jul-31 23:27 A   22 30 23.710397 +07 19 31.58229
 2018-Jul-31 23:28 A   22 30 23.729045 +07 19 31.96143
 2018-Jul-31 23:29 A   22 30 23.747650 +07 19 32.34058
 2018-Jul-31 23:30 A   22 30 23.766211 +07 19 32.71975
 2018-Jul-31 23:31 A   22 30 23.784728 +07 19 33.09894
 2018-Jul-31 23:32 A   22 30 23.803201 +07 19 33.47815
 2018-Jul-31 23:33     22 30 23.821630 +07 19 33.85738
 2018-Jul-31 23:34     22 30 23.840015 +07 19 34.23662
 2018-Jul-31 23:35     22 30 23.858356 +07 19 34.61589
 2018-Jul-31 23:36     22 30 23.876654 +07 19 34.99517
 2018-Jul-31 23:37     22 30 23.894907 +07 19 35.37446
 2018-Jul-31 23:38     22 30 23.913115 +07 19 35.75378
 2018-Jul-31 23:39     22 30 23.931280 +07 19 36.13311
 2018-Jul-31 23:40     22 30 23.949400 +07 19 36.51246
 2018-Jul-31 23:41     22 30 23.967476 +07 19 36.89182
 2018-Jul-31 23:42     22 30 23.985508 +07 19 37.27120
 2018-Jul-31 23:43     22 30 24.003495 +07 19 37.65059
 2018-Jul-31 23:44     22 30 24.021438 +07 19 38.03000
 2018-Jul-31 23:45     22 30 24.039336 +07 19 38.40942
 2018-Jul-31 23:46     22 30 24.057189 +07 19 38.78885
 2018-Jul-31 23:47     22 30 24.074998 +07 19 39.16830
 2018-Jul-31 23:48     22 30 24.092762 +07 19 39.54776
 2018-Jul-31 23:49     22 30 24.110482 +07 19 39.92724
 2018-Jul-31 23:50     22 30 24.128157 +07 19 40.30672
 2018-Jul-31 23:51     22 30 24.145787 +07 19 40.68622
 2018-Jul-31 23:52     22 30 24.163372 +07 19 41.06573
 2018-Jul-31 23:53     22 30 24.180912 +07 19 41.44525
 2018-Jul-31 23:54     22 30 24.198407 +07 19 41.82478
 2018-Jul-31 23:55     22 30 24.215858 +07 19 42.20432
 2018-Jul-31 23:56     22 30 24.233263 +07 19 42.58388
 2018-Jul-31 23:57     22 30 24.250623 +07 19 42.96344
 2018-Jul-31 23:58     22 30 24.267939 +07 19 43.34301
 2018-Jul-31 23:59     22 30 24.285209 +07 19 43.72259
 2018-Aug-01 00:00     22 30 24.302434 +07 19 44.10218
 2018-Aug-01 00:01     22 30 24.319613 +07 19 44.48177
 2018-Aug-01 00:02     22 30 24.336748 +07 19 44.86138
 2018-Aug-01 00:03     22 30 24.353837 +07 19 45.24099
 2018-Aug-01 00:04     22 30 24.370881 +07 19 45.62061
 2018-Aug-01 00:05     22 30 24.387880 +07 19 46.00024
 2018-Aug-01 00:06     22 30 24.404834 +07 19 46.37987
 2018-Aug-01 00:07     22 30 24.421742 +07 19 46.75951
 2018-Aug-01 00:08     22 30 24.438604 +07 19 47.13915
 2018-Aug-01 00:09     22 30 24.455422 +07 19 47.51880
 2018-Aug-01 00:10     22 30 24.472193 +07 19 47.89845
 2018-Aug-01 00:11     22 30 24.488920 +07 19 48.27811
 2018-Aug-01 00:12     22 30 24.505601 +07 19 48.65778
 2018-Aug-01 00:13     22 30 24.522236 +07 19 49.03744
 2018-Aug-01 00:14     22 30 24.538826 +07 19 49.41711
 2018-Aug-01 00:15     22 30 24.555370 +07 19 49.79678
 2018-Aug-01 00:16     22 30 24.571868 +07 19 50.17646
 2018-Aug-01 00:17     22 30 24.588321 +07 19 50.55614
 2018-Aug-01 00:18     22 30 24.604729 +07 19 50.93582
 2018-Aug-01 00:19     22 30 24.621090 +07 19 51.31550
 2018-Aug-01 00:20     22 30 24.637406 +07 19 51.69518
